{"type": "FeatureCollection", "features": [ {"type": "Feature", "properties": {"norad_id": 66958, "name": "CZ-6A R/B", "group": "last-30-days", "lat": -79.17189716025638, "lon": -178.35907938390852, "alt_km": 997.0386149043998, "timestamp": "2025-12-20T20:38:43.174773+00:00", "meta": {"OBJECT_NAME": "CZ-6A R/B", "OBJECT_ID": "2025-287F", "EPOCH": "2025-12-20T14:14:40.790688", "MEAN_MOTION": 13.94920926, "ECCENTRICITY": 0.01072707, "INCLINATION": 86.5061, "RA_OF_ASC_NODE": 343.1148, "ARG_OF_PERICENTER": 78.5459, "MEAN_ANOMALY": 282.7739, "EPHEMERIS_TYPE": 0, "CLASSIFICATION_TYPE": "U", "NORAD_CAT_ID": 66958, "ELEMENT_SET_NO": 999, "REV_AT_EPOCH": 163, "BSTAR": 3.200793e-05, "MEAN_MOTION_DOT": 6.4e-07, "MEAN_MOTION_DDOT": 0}, "tle": {"line1": "1 66958U 25287F   25354.59352767  .00000064  00000+0  32008-4 0  9997", "line2": "2 66958  86.5061 343.1148 0107270  78.5459 282.7739 13.94920926  1634"}}, "geometry": {"type": "Point", "coordinates": [-178.35907938390852, -79.17189716025638]}}, {"type": "Feature", "properties": {"norad_id": 66959, "name": "STARLINK-35887", "group": "last-30-days", "lat": -33.31260401899112, "lon": -17.696570648925817, "alt_km": 333.5479797345788, "timestamp": "2025-12-20T20:38:43.174784+00:00", "meta": {"OBJECT_NAME": "STARLINK-35887", "OBJECT_ID": "2025-288A", "EPOCH": "2025-12-20T14:00:03.000384", "MEAN_MOTION": 15.80446704, "ECCENTRICITY": 0.00016182, "INCLINATION": 43.0012, "RA_OF_ASC_NODE": 119.147, "ARG_OF_PERICENTER": 281.2067, "MEAN_ANOMALY": 175.7021, "EPHEMERIS_TYPE": 0, "CLASSIFICATION_TYPE": "U", "NORAD_CAT_ID": 66959, "ELEMENT_SET_NO": 999, "REV_AT_EPOCH": 309, "BSTAR": -0.0076542065, "MEAN_MOTION_DOT": -0.01315568, "MEAN_MOTION_DDOT": 0}, "tle": {"line1": "1 66959U 25288A   25354.58336806 -.01315568  00000+0 -76542-2 0  9994", "line2": "2 66959  43.0012 119.1470 0001618 281.2067 175.7021 15.80446704  3096"}}, "geometry": {"type": "Point", "coordinates": [-17.696570648925817, -33.31260401899112]}}, {"type": "Feature", "properties": {"norad_id": 66960, "name": "STARLINK-35879", "group": "last-30-days", "lat": -34.245087817982316, "lon": -15.619330425808938, "alt_km": 333.5445556132363, "timestamp": "2025-12-20T20:38:43.174794+00:00", "meta": {"OBJECT_NAME": "STARLINK-35879", "OBJECT_ID": "2025-288B", "EPOCH": "2025-12-20T14:00:03.000384", "MEAN_MOTION": 15.80453789, "ECCENTRICITY": 0.00015325, "INCLINATION": 43.0008, "RA_OF_ASC_NODE": 119.1423, "ARG_OF_PERICENTER": 277.9387, "MEAN_ANOMALY": 180.9309, "EPHEMERIS_TYPE": 0, "CLASSIFICATION_TYPE": "U", "NORAD_CAT_ID": 66960, "ELEMENT_SET_NO": 999, "REV_AT_EPOCH": 309, "BSTAR": -0.0076856167, "MEAN_MOTION_DOT": -0.01345512, "MEAN_MOTION_DDOT": 0}, "tle": {"line1": "1 66960U 25288B   25354.58336806 -.01345512  00000+0 -76856-2 0  9996", "line2": "2 66960  43.0008 119.1423 0001532 277.9387 180.9309 15.80453789  3091"}}, "geometry": {"type": "Point", "coordinates": [-15.619330425808938, -34.245087817982316]}}, {"type": "Feature", "properties": {"norad_id": 66961, "name": "STARLINK-35761", "group": "last-30-days", "lat": -35.18283076442201, "lon": -13.397454030057247, "alt_km": 333.7560896768846, "timestamp": "2025-12-20T20:38:43.174804+00:00", "meta": {"OBJECT_NAME": "STARLINK-35761", "OBJECT_ID": "2025-288C", "EPOCH": "2025-12-20T14:00:03.000384", "MEAN_MOTION": 15.80444701, "ECCENTRICITY": 0.00014179, "INCLINATION": 43.0011, "RA_OF_ASC_NODE": 119.1369, "ARG_OF_PERICENTER": 284.4348, "MEAN_ANOMALY": 176.5056, "EPHEMERIS_TYPE": 0, "CLASSIFICATION_TYPE": "U", "NORAD_CAT_ID": 66961, "ELEMENT_SET_NO": 999, "REV_AT_EPOCH": 309, "BSTAR": -0.0077251389, "MEAN_MOTION_DOT": -0.01351118, "MEAN_MOTION_DDOT": 0}, "tle": {"line1": "1 66961U 25288C   25354.58336806 -.01351118  00000+0 -77251-2 0  9996", "line2": "2 66961  43.0011 119.1369 0001417 284.4348 176.5056 15.80444701  3091"}}, "geometry": {"type": "Point", "coordinates": [-13.397454030057247, -35.18283076442201]}}, {"type": "Feature", "properties": {"norad_id": 66962, "name": "STARLINK-35874", "group": "last-30-days", "lat": -36.24003987410461, "lon": -10.696234155064051, "alt_km": 333.7333387206272, "timestamp": "2025-12-20T20:38:43.174818+00:00", "meta": {"OBJECT_NAME": "STARLINK-35874", "OBJECT_ID": "2025-288D", "EPOCH": "2025-12-20T14:00:03.000384", "MEAN_MOTION": 15.80390995, "ECCENTRICITY": 0.00015438, "INCLINATION": 43.0008, "RA_OF_ASC_NODE": 119.1308, "ARG_OF_PERICENTER": 273.8779, "MEAN_ANOMALY": 189.5597, "EPHEMERIS_TYPE": 0, "CLASSIFICATION_TYPE": "U", "NORAD_CAT_ID": 66962, "ELEMENT_SET_NO": 999, "REV_AT_EPOCH": 309, "BSTAR": -0.0078140373, "MEAN_MOTION_DOT": -0.01362032, "MEAN_MOTION_DDOT": 0}, "tle": {"line1": "1 66962U 25288D   25354.58336806 -.01362032  00000+0 -78140-2 0  9992", "line2": "2 66962  43.0008 119.1308 0001543 273.8779 189.5597 15.80390995  3090"}}, "geometry": {"type": "Point", "coordinates": [-10.696234155064051, -36.24003987410461]}}, {"type": "Feature", "properties": {"norad_id": 66963, "name": "STARLINK-36133", "group": "last-30-days", "lat": -37.09191903297714, "lon": -8.338200021085006, "alt_km": 333.82214405181367, "timestamp": "2025-12-20T20:38:43.174829+00:00", "meta": {"OBJECT_NAME": "STARLINK-36133", "OBJECT_ID": "2025-288E", "EPOCH": "2025-12-20T14:00:03.000384", "MEAN_MOTION": 15.80381064, "ECCENTRICITY": 0.00015163, "INCLINATION": 43.001, "RA_OF_ASC_NODE": 119.1256, "ARG_OF_PERICENTER": 275.1586, "MEAN_ANOMALY": 190.3718, "EPHEMERIS_TYPE": 0, "CLASSIFICATION_TYPE": "U", "NORAD_CAT_ID": 66963, "ELEMENT_SET_NO": 999, "REV_AT_EPOCH": 309, "BSTAR": -0.0078598095, "MEAN_MOTION_DOT": -0.0136857, "MEAN_MOTION_DDOT": 0}, "tle": {"line1": "1 66963U 25288E   25354.58336806 -.01368570  00000+0 -78598-2 0  9993", "line2": "2 66963  43.0010 119.1256 0001516 275.1586 190.3718 15.80381064  3099"}}, "geometry": {"type": "Point", "coordinates": [-8.338200021085006, -37.09191903297714]}}, {"type": "Feature", "properties": {"norad_id": 66964, "name": "STARLINK-36104", "group": "last-30-days", "lat": -37.90961668270054, "lon": -5.884847677881676, "alt_km": 333.88592796257035, "timestamp": "2025-12-20T20:38:43.174839+00:00", "meta": {"OBJECT_NAME": "STARLINK-36104", "OBJECT_ID": "2025-288F", "EPOCH": "2025-12-20T14:00:03.000384", "MEAN_MOTION": 15.80368718, "ECCENTRICITY": 0.00015831, "INCLINATION": 43.0011, "RA_OF_ASC_NODE": 119.1201, "ARG_OF_PERICENTER": 277.9732, "MEAN_ANOMALY": 189.6913, "EPHEMERIS_TYPE": 0, "CLASSIFICATION_TYPE": "U", "NORAD_CAT_ID": 66964, "ELEMENT_SET_NO": 999, "REV_AT_EPOCH": 309, "BSTAR": -0.0079206875, "MEAN_MOTION_DOT": -0.01377355, "MEAN_MOTION_DDOT": 0}, "tle": {"line1": "1 66964U 25288F   25354.58336806 -.01377355  00000+0 -79207-2 0  9993", "line2": "2 66964  43.0011 119.1201 0001583 277.9732 189.6913 15.80368718  3097"}}, "geometry": {"type": "Point", "coordinates": [-5.884847677881676, -37.90961668270054]}}, {"type": "Feature", "properties": {"norad_id": 66965, "name": "STARLINK-36067", "group": "last-30-days", "lat": -38.67443580092795, "lon": -3.3794352443633184, "alt_km": 334.03333736515197, "timestamp": "2025-12-20T20:38:43.174849+00:00", "meta": {"OBJECT_NAME": "STARLINK-36067", "OBJECT_ID": "2025-288G", "EPOCH": "2025-12-20T14:00:03.000384", "MEAN_MOTION": 15.80348915, "ECCENTRICITY": 0.00015492, "INCLINATION": 43.001, "RA_OF_ASC_NODE": 119.1146, "ARG_OF_PERICENTER": 282.211, "MEAN_ANOMALY": 187.5918, "EPHEMERIS_TYPE": 0, "CLASSIFICATION_TYPE": "U", "NORAD_CAT_ID": 66965, "ELEMENT_SET_NO": 999, "REV_AT_EPOCH": 309, "BSTAR": -0.0079503818, "MEAN_MOTION_DOT": -0.01380802, "MEAN_MOTION_DDOT": 0}, "tle": {"line1": "1 66965U 25288G   25354.58336806 -.01380802  00000+0 -79504-2 0  9995", "line2": "2 66965  43.0010 119.1146 0001549 282.2110 187.5918 15.80348915  3095"}}, "geometry": {"type": "Point", "coordinates": [-3.3794352443633184, -38.67443580092795]}}, {"type": "Feature", "properties": {"norad_id": 66966, "name": "STARLINK-36139", "group": "last-30-days", "lat": -39.468141252449605, "lon": -0.5028429395770805, "alt_km": 334.245291470771, "timestamp": "2025-12-20T20:38:43.174861+00:00", "meta": {"OBJECT_NAME": "STARLINK-36139", "OBJECT_ID": "2025-288H", "EPOCH": "2025-12-20T14:00:03.000384", "MEAN_MOTION": 15.80300982, "ECCENTRICITY": 0.00013219, "INCLINATION": 43.001, "RA_OF_ASC_NODE": 119.1085, "ARG_OF_PERICENTER": 274.6535, "MEAN_ANOMALY": 197.575, "EPHEMERIS_TYPE": 0, "CLASSIFICATION_TYPE": "U", "NORAD_CAT_ID": 66966, "ELEMENT_SET_NO": 999, "REV_AT_EPOCH": 309, "BSTAR": -0.008050924, "MEAN_MOTION_DOT": -0.01393436, "MEAN_MOTION_DDOT": 0}, "tle": {"line1": "1 66966U 25288H   25354.58336806 -.01393436  00000+0 -80509-2 0  9990", "line2": "2 66966  43.0010 119.1085 0001321 274.6535 197.5750 15.80300982  3099"}}, "geometry": {"type": "Point", "coordinates": [-0.5028429395770805, -39.468141252449605]}}, {"type": "Feature", "properties": {"norad_id": 66967, "name": "STARLINK-36136", "group": "last-30-days", "lat": -40.10882162458738, "lon": 2.0908069512813925, "alt_km": 334.23755055861966, "timestamp": "2025-12-20T20:38:43.174871+00:00", "meta": {"OBJECT_NAME": "STARLINK-36136", "OBJECT_ID": "2025-288J", "EPOCH": "2025-12-20T14:00:03.000384", "MEAN_MOTION": 15.80286381, "ECCENTRICITY": 0.00014978, "INCLINATION": 43.001, "RA_OF_ASC_NODE": 119.1031, "ARG_OF_PERICENTER": 278.5344, "MEAN_ANOMALY": 195.8123, "EPHEMERIS_TYPE": 0, "CLASSIFICATION_TYPE": "U", "NORAD_CAT_ID": 66967, "ELEMENT_SET_NO": 999, "REV_AT_EPOCH": 309, "BSTAR": -0.0080855364, "MEAN_MOTION_DOT": -0.01398029, "MEAN_MOTION_DDOT": 0}, "tle": {"line1": "1 66967U 25288J   25354.58336806 -.01398029  00000+0 -80855-2 0  9998", "line2": "2 66967  43.0010 119.1031 0001497 278.5344 195.8123 15.80286381  3097"}}, "geometry": {"type": "Point", "coordinates": [2.0908069512813925, -40.10882162458738]}}]}